STARLINK-31816          
1 59742U 24090N   24141.83334491 -.01044307  00000+0 -40329-2 0  9999
2 59742  43.0026 333.2240 0001870 275.4741   7.9160 15.88683740  2417
STARLINK-31809          
1 59743U 24090P   24141.83334491 -.00933268  00000+0 -44251-2 0  9990
2 59743  43.0026 333.4345 0001636 277.6352 282.3747 15.84280559  2325
STARLINK-31779          
1 59744U 24090Q   24141.83334491 -.00949564  00000+0 -44919-2 0  9998
2 59744  43.0023 333.4240 0001752 277.7244 286.5219 15.84367292  2417
STARLINK-31805          
1 59745U 24090R   24141.91668981 -.00919094  00000+0 -43791-2 0  9994
2 59745  43.0025 332.9166 0001872 283.9118  34.1193 15.84142997  2447
STARLINK-31681          
1 59746U 24090S   24141.83334491 -.00956544  00000+0 -45196-2 0  9994
2 59746  43.0027 333.4187 0001580 278.6511 287.5571 15.84410531  2438
STARLINK-31636          
1 59747U 24090T   24141.83334491 -.00975231  00000+0 -45988-2 0  9998
2 59747  43.0022 333.4080 0001576 281.0909 289.5653 15.84497190  2439
STARLINK-31640          
1 59748U 24090U   24141.83334491 -.00966355  00000+0 -45617-2 0  9995
2 59748  43.0024 333.4134 0001539 277.3594 291.1165 15.84454276  2434
STARLINK-31677          
1 59749U 24090V   24141.83334491 -.00982635  00000+0 -46279-2 0  9990
2 59749  43.0021 333.4027 0001766 276.7339 296.0618 15.84539215  2439
STARLINK-31783          
1 59750U 24090W   24141.83334491 -.00988904  00000+0 -46510-2 0  9995
2 59750  43.0021 333.3978 0001811 276.9038 297.7427 15.84582559  2439
STARLINK-31808          
1 59751U 24090X   24141.83334491 -.00997337  00000+0 -46856-2 0  9999
2 59751  43.0026 333.3923 0001862 276.1311 300.6783 15.84624987  2438
STARLINK-31822          
1 59752U 24090Y   24141.83334491 -.01002134  00000+0 -47010-2 0  9996
2 59752  43.0022 333.3883 0001907 278.1548 300.4646 15.84667512  2431
2024-092A               
1 59773U 24092A   24141.71231158  .00036351  00000+0  87069-3 0  9998
2 59773  97.2458 253.8807 0011702 232.6950 127.3231 15.41272966   584
2024-092B               
1 59774U 24092B   24141.88011699  .00017110  00000+0  10906-2 0  9990
2 59774  97.5878 254.0178 0012018 290.9370 186.2185 15.08735952   564
2024-092C               
1 59775U 24092C   24141.87999762  .00015827  00000+0  10049-2 0  9997
2 59775  97.5993 254.0366 0011839 292.1695 186.4999 15.08897889   570
2024-092D               
1 59776U 24092D   24141.81711502  .00018940  00000+0  12439-2 0  9990
2 59776  97.5947 253.9649 0011438 257.5732 223.1972 15.07616100   567
2024-092E               
1 59777U 24092E   24141.75455734  .00018646  00000+0  12240-2 0  9999
2 59777  97.5960 253.8972 0012371 266.7605 234.8864 15.07629605   551
2024-092F               
1 59778U 24092F   24141.88284693  .00018220  00000+0  11943-2 0  9995
2 59778  97.5961 254.0255 0012514 268.0948 210.1051 15.07686316   573
2024-092G               
1 59779U 24092G   24141.84548720  .00001312  00000+0  51427-3 0  9992
2 59779  98.6034 253.9964 0010986 280.2326  79.7595 14.31067590   541
2024-092H               
1 59780U 24092H   24141.84547188  .00001311  00000+0  51406-3 0  9997
2 59780  98.6052 253.9958 0011248 281.6798  78.3085 14.31073540   547
2024-092J               
1 59781U 24092J   24141.84546513  .00002044  00000+0  79186-3 0  9998
2 59781  98.6044 253.9955 0011475 281.0347  78.9515 14.31078256   545
2024-094A               
1 59805U 24094A   24141.82934052  .00025016  00000+0  10514-2 0  9997
2 59805  97.4730 212.7322 0009935 268.5692  91.4406 15.23367380   105
2024-094B               
1 59806U 24094B   24141.82902459  .00026353  00000+0  10844-2 0  9995
2 59806  97.4726 212.7327 0010535 285.3101  74.6971 15.24065732    91
2024-094C               
1 59807U 24094C   24141.82912550  .00025598  00000+0  10606-2 0  9995
2 59807  97.4740 212.7326 0010679 279.3118  80.6911 15.23838206    91
2024-094D               
1 59808U 24094D   24141.82918477  .00025016  00000+0  10407-2 0  9994
2 59808  97.4727 212.7324 0010263 276.6152  83.3917 15.23709809    94
2024-092K               
1 59809U 24092K   24141.75567301  .00018554  00000+0  12179-2 0  9998
2 59809  97.5943 253.8993 0012518 265.1720 242.5419 15.07630471    55
NOAA 1                  
1 04793U 70106A   24141.59337670 -.00000021  00000+0  13588-3 0  9990
2 04793 101.4473 194.6851 0031669  32.0027 140.6649 12.54027716445725
NOAA 2 (ITOS-D)         
1 06235U 72082A   24141.63207170 -.00000015  00000+0  19972-3 0  9990
2 06235 102.0148 140.2878 0004110 167.3843 303.0444 12.53179865360051
NOAA 3                  
1 06920U 73086A   24141.63111051 -.00000022  00000+0  18192-3 0  9999
2 06920 102.2753 137.3834 0006955  76.7973  40.0342 12.40367478287970
NOAA 4                  
1 07529U 74089A   24141.60907612 -.00000026  00000+0  12947-3 0  9998
2 07529 101.9867 135.6181 0008786 198.4884 273.5969 12.53179962264629
NOAA 5                  
1 09057U 76077A   24141.87760691 -.00000014  00000+0  24034-3 0  9995
2 09057 102.2058 115.3542 0009300 287.5714 127.8978 12.37800286160992
TIROS N                 
1 11060U 78096A   24141.56411762  .00000532  00000+0  27581-3 0  9997
2 11060  98.5340 182.9869 0009270 276.1108  83.9012 14.18809643571296
NOAA 6                  
1 11416U 79057A   24141.63155322  .00001043  00000+0  38551-3 0  9992
2 11416  98.6300 162.8865 0009762 349.0076  11.0894 14.34501871342512
NOAA 7                  
1 12553U 81059A   24141.59362180  .00000234  00000+0  13739-3 0  9999
2 12553  98.8949 200.8883 0010383 273.4331  86.5656 14.17524749217406
NOAA 8                  
1 13923U 83022A   24141.56104918  .00000565  00000+0  23965-3 0  9992
2 13923  98.7299 141.4754 0014126 317.6027  42.4062 14.29237963142821
NOAA 9                  
1 15427U 84123A   24141.63661552  .00000482  00000+0  26500-3 0  9992
2 15427  99.1176 138.3989 0014354 338.5254 132.3878 14.16586802 36149
NOAA 10                 
1 16969U 86073A   24141.55119684  .00000555  00000+0  23840-3 0  9990
2 16969  98.6398 127.7458 0013154  56.1902  54.2044 14.28610531961205
NOAA 11                 
1 19531U 88089A   24141.86186435  .00000276  00000+0  16245-3 0  9990
2 19531  98.5164 105.6348 0010321 318.3882  41.6506 14.15532007840575
NOAA 12                 
1 21263U 91032A   24141.56674401  .00000404  00000+0  18581-3 0  9997
2 21263  98.5568 133.3077 0014931  83.3175 276.9704 14.26306402717206
NOAA 13                 
1 22739U 93050A   24141.46228832  .00000444  00000+0  25963-3 0  9996
2 22739  98.6044 100.0231 0010342 128.0972 232.1135 14.13207340586339
NOAA 14                 
1 23455U 94089A   24141.57227666  .00000232  00000+0  14242-3 0  9994
2 23455  98.4318 139.1102 0010707 100.7675 259.4705 14.14390632516098
NOAA 15                 
1 25338U 98030A   24141.81311874  .00000627  00000+0  27755-3 0  9999
2 25338  98.5701 169.5096 0011156  50.0944 310.1215 14.26580203353538
NOAA 16                 
1 26536U 00055A   24141.83203155  .00000317  00000+0  19000-3 0  9994
2 26536  98.5332 182.6776 0009571 319.2644  40.7813 14.13576810220218
NOAA 17                 
1 27453U 02032A   24141.55563619  .00000531  00000+0  24298-3 0  9996
2 27453  98.7616  92.1643 0012411  33.7925 326.4043 14.25572882139013
NOAA 18                 
1 28654U 05018A   24141.80858768  .00000538  00000+0  31087-3 0  9998
2 28654  98.8743 219.0004 0015122 138.3473 221.8853 14.13210301979394
NOAA 19                 
1 33591U 09005A   24141.82693966  .00000484  00000+0  28357-3 0  9999
2 33591  99.0486 197.3345 0013878  14.0975 346.0581 14.13007727787768
SUOMI NPP               
1 37849U 11061A   24141.83588024  .00000287  00000+0  15674-3 0  9992
2 37849  98.7214  80.2273 0001262  58.0310 302.0988 14.19571647650987
NOAA 20 (JPSS-1)        
1 43013U 17073A   24141.85381808  .00000281  00000+0  15369-3 0  9999
2 43013  98.7056  80.2339 0000574  28.3322 331.7885 14.19586191337024
NOAA 21 (JPSS-2)        
1 54234U 22150A   24141.53530390  .00000329  00000+0  17689-3 0  9995
2 54234  98.7509  79.7552 0000861 109.5985 250.5284 14.19573696 79053
ISS (ZARYA)             
1 25544U 98067A   24142.01998021  .00027681  00000+0  46315-3 0  9998
2 25544  51.6387  90.0061 0003311 189.0337 263.8557 15.51663725454333
CSS (TIANHE)            
1 48274U 21035A   24141.75370197  .00061245  00000+0  60660-3 0  9995
2 48274  41.4681 250.6132 0002638  20.8167 339.2780 15.64910634174804
ISS (NAUKA)             
1 49044U 21066A   24141.35932815  .00024786  00000+0  41629-3 0  9995
2 49044  51.6363  93.2944 0003127 191.6193 168.4725 15.51622041454239
FREGAT DEB              
1 49271U 11037PF  24141.18666050  .00044065  00000+0  97579-1 0  9995
2 49271  51.6669  68.3381 0980556  63.1289 306.6367 12.15329710131792
CSS (WENTIAN)           
1 53239U 22085A   24141.56224685  .00060762  00000+0  60241-3 0  9995
2 53239  41.4682 251.7852 0002694  18.5458 341.5480 15.64888082102470
CSS (MENGTIAN)          
1 54216U 22143A   24141.56224685  .00060762  00000+0  60241-3 0  9996
2 54216  41.4682 251.7852 0002694  18.5458 341.5480 15.64888082 88367
ISS DEB [SPX-28 IPA FSE]
1 57212U 98067VP  24141.48157524  .03585333  11989-4  10678-2 0  9991
2 57212  51.5414  49.7960 0006868 209.6034 317.2166 16.26262358 51751
ISS DEB                 
1 58229U 98067WC  24141.19518791  .00289597  00000+0  11617-2 0  9996
2 58229  51.6272  75.6330 0004514 113.2919 246.8560 15.85130904 31231
PROGRESS-MS 25          
1 58460U 23184A   24141.35932815  .00024786  00000+0  41629-3 0  9990
2 58460  51.6363  93.2944 0003127 191.6193 168.4725 15.51622041454231
BEAK                    
1 58612U 98067WD  24141.29104035  .00255117  00000+0  11830-2 0  9993
2 58612  51.6318  79.3130 0004661 127.4254 232.7174 15.82157602 24147
